{
    "links": {
        "self": "http://www.neowsapp.com/rest/v1/neo/3765936?api_key=iIulBulltgU6a56xZRHN4H3l9WmuAYTsLGpBGhQ2"
    },
    "id": "3765936",
    "neo_reference_id": "3765936",
    "name": "(2016 XW20)",
    "designation": "2016 XW20",
    "nasa_jpl_url": "http://ssd.jpl.nasa.gov/sbdb.cgi?sstr=3765936",
    "absolute_magnitude_h": 26.7,
    "estimated_diameter": {
        "kilometers": {
            "estimated_diameter_min": 0.0121494041,
            "estimated_diameter_max": 0.0271668934
        },
        "meters": {
            "estimated_diameter_min": 12.14940408,
            "estimated_diameter_max": 27.1668934089
        },
        "miles": {
            "estimated_diameter_min": 0.0075492874,
            "estimated_diameter_max": 0.0168807197
        },
        "feet": {
            "estimated_diameter_min": 39.8602508817,
            "estimated_diameter_max": 89.1302305717
        }
    },
    "is_potentially_hazardous_asteroid": false,
    "close_approach_data": [
        {
            "close_approach_date": "2016-12-12",
            "close_approach_date_full": "2016-Dec-12 11:55",
            "epoch_date_close_approach": 1481543700000,
            "relative_velocity": {
                "kilometers_per_second": "7.9828230464",
                "kilometers_per_hour": "28738.1629670112",
                "miles_per_hour": "17856.7768724742"
            },
            "miss_distance": {
                "astronomical": "0.0050541332",
                "lunar": "1.9660578148",
                "kilometers": "756087.561416284",
                "miles": "469811.0252373592"
            },
            "orbiting_body": "Moon"
        },
        {
            "close_approach_date": "2016-12-13",
            "close_approach_date_full": "2016-Dec-13 00:18",
            "epoch_date_close_approach": 1481588280000,
            "relative_velocity": {
                "kilometers_per_second": "8.4170440557",
                "kilometers_per_hour": "30301.3586006385",
                "miles_per_hour": "18828.0858482689"
            },
            "miss_distance": {
                "astronomical": "0.0046007637",
                "lunar": "1.7896970793",
                "kilometers": "688264.449893319",
                "miles": "427667.6979490422"
            },
            "orbiting_body": "Earth"
        }
    ],
    "orbital_data": {
        "orbit_id": "6",
        "orbit_determination_date": "2018-02-10 07:08:35",
        "first_observation_date": "2016-12-06",
        "last_observation_date": "2016-12-12",
        "data_arc_in_days": 6,
        "observations_used": 50,
        "orbit_uncertainty": "7",
        "minimum_orbit_intersection": ".00420224",
        "jupiter_tisserand_invariant": "3.658",
        "epoch_osculation": "2459000.5",
        "eccentricity": ".5260909506233585",
        "semi_major_axis": "1.997966151966218",
        "inclination": "1.004244582363689",
        "ascending_node_longitude": "66.38583389421257",
        "orbital_period": "1031.527039287563",
        "perihelion_distance": ".9468542397650168",
        "perihelion_argument": "41.1674559311211",
        "aphelion_distance": "3.04907806416742",
        "perihelion_time": "2458787.438917705940",
        "mean_anomaly": "74.35771114525205",
        "mean_motion": ".3489971530447118",
        "equinox": "J2000",
        "orbit_class": {
            "orbit_class_type": "APO",
            "orbit_class_description": "Near-Earth asteroid orbits which cross the Earth’s orbit similar to that of 1862 Apollo",
            "orbit_class_range": "a (semi-major axis) > 1.0 AU; q (perihelion) < 1.017 AU"
        }
    },
    "is_sentry_object": false
}